start=new Date('2023-02-22T00:00:00.000Z').valueOf();
sats=[{"CENTER_NAME":"EARTH","SITE":"AFETR","LAUNCH_DATE":"2020-06-13","ELEMENT_SET_NO":"999","REV_AT_EPOCH":"14916","MEAN_MOTION_DDOT":"0.0000000000000","OBJECT_TYPE":"PAYLOAD","NORAD_CAT_ID":"45785","INCLINATION":"53.0517","RA_OF_ASC_NODE":"148.2884","EPOCH":"2023-02-21T18:08:08.783808","MEAN_ELEMENT_THEORY":"SGP4","EPHEMERIS_TYPE":"0","COUNTRY_CODE":"US","OBJECT_ID":"2020-038BH","ECCENTRICITY":"0.00015870","CLASSIFICATION_TYPE":"U","FILE":"3821329","MEAN_ANOMALY":"279.0418","BSTAR":"0.00207390000000","OBJECT_NAME":"STARLINK-1512","SEMIMAJOR_AXIS":"6925.141","TLE_LINE2":"2 45785  53.0517 148.2884 0001587  81.0751 279.0418 15.06467704149162","MEAN_MOTION":"15.06467704","ARG_OF_PERICENTER":"81.0751","PERIOD":"95.588","RCS_SIZE":"LARGE","TIME_SYSTEM":"UTC","APOAPSIS":"548.105","PERIAPSIS":"545.907","REF_FRAME":"TEME","DECAY_DATE":null,"TLE_LINE1":"1 45785U 20038BH  23052.75565722  .00030801  00000-0  20739-2 0  9998","GP_ID":"226328996","MEAN_MOTION_DOT":"0.00030801"},{"INCLINATION":"53.0542","RA_OF_ASC_NODE":"148.3471","EPOCH":"2023-02-21T17:46:56.387424","MEAN_ELEMENT_THEORY":"SGP4","EPHEMERIS_TYPE":"0","COUNTRY_CODE":"US","CENTER_NAME":"EARTH","SITE":"AFETR","LAUNCH_DATE":"2020-06-13","ELEMENT_SET_NO":"999","REV_AT_EPOCH":"14916","MEAN_MOTION_DDOT":"0.0000000000000","OBJECT_TYPE":"PAYLOAD","NORAD_CAT_ID":"45786","TLE_LINE2":"2 45786  53.0542 148.3471 0001195  68.3641 291.7475 15.06446666149163","MEAN_MOTION":"15.06446666","ARG_OF_PERICENTER":"68.3641","PERIOD":"95.589","RCS_SIZE":"LARGE","TIME_SYSTEM":"UTC","REF_FRAME":"TEME","PERIAPSIS":"546.243","APOAPSIS":"547.898","DECAY_DATE":null,"TLE_LINE1":"1 45786U 20038BJ  23052.74093041  .00022283  00000-0  15082-2 0  9998","GP_ID":"226327746","MEAN_MOTION_DOT":"0.00022283","OBJECT_ID":"2020-038BJ","ECCENTRICITY":"0.00011950","CLASSIFICATION_TYPE":"U","FILE":"3821329","MEAN_ANOMALY":"291.7475","OBJECT_NAME":"STARLINK-1513","BSTAR":"0.00150820000000","SEMIMAJOR_AXIS":"6925.206"},{"OBJECT_TYPE":"PAYLOAD","NORAD_CAT_ID":"45787","REV_AT_EPOCH":"14914","MEAN_MOTION_DDOT":"0.0000000000000","LAUNCH_DATE":"2020-06-13","ELEMENT_SET_NO":"999","CENTER_NAME":"EARTH","SITE":"AFETR","COUNTRY_CODE":"US","MEAN_ELEMENT_THEORY":"SGP4","EPHEMERIS_TYPE":"0","RA_OF_ASC_NODE":"148.9122","EPOCH":"2023-02-21T14:46:28.215840","INCLINATION":"53.0537","FILE":"3821329","MEAN_ANOMALY":"275.8802","BSTAR":"0.00017265000000","OBJECT_NAME":"STARLINK-1517","SEMIMAJOR_AXIS":"6925.279","CLASSIFICATION_TYPE":"U","OBJECT_ID":"2020-038BK","ECCENTRICITY":"0.00014410","TLE_LINE1":"1 45787U 20038BK  23052.61560435  .00002293  00000-0  17265-3 0  9996","GP_ID":"226327996","MEAN_MOTION_DOT":"0.00002293","TIME_SYSTEM":"UTC","REF_FRAME":"TEME","PERIAPSIS":"546.146","APOAPSIS":"548.142","DECAY_DATE":null,"PERIOD":"95.591","RCS_SIZE":"LARGE","TLE_LINE2":"2 45787  53.0537 148.9122 0001441  84.2351 275.8802 15.06422576149145","MEAN_MOTION":"15.06422576","ARG_OF_PERICENTER":"84.2351"},{"COUNTRY_CODE":"US","EPHEMERIS_TYPE":"0","MEAN_ELEMENT_THEORY":"SGP4","EPOCH":"2023-02-21T18:54:37.623744","RA_OF_ASC_NODE":"78.1418","INCLINATION":"53.0516","NORAD_CAT_ID":"46027","OBJECT_TYPE":"PAYLOAD","MEAN_MOTION_DDOT":"0.0000000000000","REV_AT_EPOCH":"14129","ELEMENT_SET_NO":"999","LAUNCH_DATE":"2020-08-07","SITE":"AFETR","CENTER_NAME":"EARTH","MEAN_MOTION_DOT":"0.00005100","GP_ID":"226328770","TLE_LINE1":"1 46027U 20055A   23052.78793546  .00005100  00000-0  36125-3 0  9998","DECAY_DATE":null,"REF_FRAME":"TEME","PERIAPSIS":"545.633","APOAPSIS":"548.932","TIME_SYSTEM":"UTC","RCS_SIZE":"LARGE","PERIOD":"95.594","ARG_OF_PERICENTER":"89.0746","MEAN_MOTION":"15.06377433","TLE_LINE2":"2 46027  53.0516  78.1418 0002382  89.0746 271.0516 15.06377433141297","SEMIMAJOR_AXIS":"6925.418","BSTAR":"0.00036125000000","OBJECT_NAME":"STARLINK-1522","FILE":"3821329","MEAN_ANOMALY":"271.0516","CLASSIFICATION_TYPE":"U","ECCENTRICITY":"0.00023820","OBJECT_ID":"2020-055A"},{"PERIAPSIS":"545.952","REF_FRAME":"TEME","APOAPSIS":"548.532","DECAY_DATE":null,"TIME_SYSTEM":"UTC","GP_ID":"226329518","MEAN_MOTION_DOT":"-0.00000835","TLE_LINE1":"1 46028U 20055B   23052.80267211 -.00000835  00000-0 -37187-4 0  9999","MEAN_MOTION":"15.06390714","ARG_OF_PERICENTER":"82.1388","TLE_LINE2":"2 46028  53.0550  78.0698 0001863  82.1388 277.9812 15.06390714141318","RCS_SIZE":"LARGE","PERIOD":"95.593","CLASSIFICATION_TYPE":"U","BSTAR":"-0.00003718700000","OBJECT_NAME":"STARLINK-1523","SEMIMAJOR_AXIS":"6925.377","FILE":"3821329","MEAN_ANOMALY":"277.9812","ECCENTRICITY":"0.00018630","OBJECT_ID":"2020-055B","EPHEMERIS_TYPE":"0","MEAN_ELEMENT_THEORY":"SGP4","COUNTRY_CODE":"US","INCLINATION":"53.0550","EPOCH":"2023-02-21T19:15:50.870304","RA_OF_ASC_NODE":"78.0698","MEAN_MOTION_DDOT":"0.0000000000000","REV_AT_EPOCH":"14131","NORAD_CAT_ID":"46028","OBJECT_TYPE":"PAYLOAD","SITE":"AFETR","CENTER_NAME":"EARTH","LAUNCH_DATE":"2020-08-07","ELEMENT_SET_NO":"999"},{"OBJECT_ID":"2020-055C","ECCENTRICITY":"0.00015590","MEAN_ANOMALY":"266.3374","FILE":"3821329","SEMIMAJOR_AXIS":"6925.190","BSTAR":"-0.00007104300000","OBJECT_NAME":"STARLINK-1526","CLASSIFICATION_TYPE":"U","PERIOD":"95.589","RCS_SIZE":"LARGE","TLE_LINE2":"2 46029  53.0557  78.1015 0001559  93.7793 266.3374 15.06451641141301","ARG_OF_PERICENTER":"93.7793","MEAN_MOTION":"15.06451641","TLE_LINE1":"1 46029U 20055C   23052.79527844 -.00001341  00000-0 -71043-4 0  9991","MEAN_MOTION_DOT":"-0.00001341","GP_ID":"226328268","TIME_SYSTEM":"UTC","DECAY_DATE":null,"REF_FRAME":"TEME","PERIAPSIS":"545.976","APOAPSIS":"548.135","ELEMENT_SET_NO":"999","LAUNCH_DATE":"2020-08-07","CENTER_NAME":"EARTH","SITE":"AFETR","OBJECT_TYPE":"PAYLOAD","NORAD_CAT_ID":"46029","REV_AT_EPOCH":"14130","MEAN_MOTION_DDOT":"0.0000000000000","RA_OF_ASC_NODE":"78.1015","EPOCH":"2023-02-21T19:05:12.057216","INCLINATION":"53.0557","COUNTRY_CODE":"US","MEAN_ELEMENT_THEORY":"SGP4","EPHEMERIS_TYPE":"0"},{"SITE":"AFETR","CENTER_NAME":"EARTH","LAUNCH_DATE":"2020-08-07","ELEMENT_SET_NO":"999","MEAN_MOTION_DDOT":"0.0000000000000","REV_AT_EPOCH":"14122","NORAD_CAT_ID":"46030","OBJECT_TYPE":"PAYLOAD","INCLINATION":"53.0518","EPOCH":"2023-02-21T13:09:33.806016","RA_OF_ASC_NODE":"79.2207","EPHEMERIS_TYPE":"0","MEAN_ELEMENT_THEORY":"SGP4","COUNTRY_CODE":"US","ECCENTRICITY":"0.00012800","OBJECT_ID":"2020-055D","CLASSIFICATION_TYPE":"U","BSTAR":"0.00175870000000","OBJECT_NAME":"STARLINK-1534","SEMIMAJOR_AXIS":"6925.149","MEAN_ANOMALY":"269.8896","FILE":"3819803","MEAN_MOTION":"15.06465057","ARG_OF_PERICENTER":"90.2240","TLE_LINE2":"2 46030  53.0518  79.2207 0001280  90.2240 269.8896 15.06465057141229","RCS_SIZE":"LARGE","PERIOD":"95.588","REF_FRAME":"TEME","PERIAPSIS":"546.128","APOAPSIS":"547.901","DECAY_DATE":null,"TIME_SYSTEM":"UTC","GP_ID":"226272096","MEAN_MOTION_DOT":"0.00026058","TLE_LINE1":"1 46030U 20055D   23052.54830794  .00026058  00000-0  17587-2 0  9998"},{"MEAN_ELEMENT_THEORY":"SGP4","EPHEMERIS_TYPE":"0","COUNTRY_CODE":"US","INCLINATION":"53.0525","RA_OF_ASC_NODE":"79.1992","EPOCH":"2023-02-21T13:13:32.977632","REV_AT_EPOCH":"14125","MEAN_MOTION_DDOT":"0.0000000000000","OBJECT_TYPE":"PAYLOAD","NORAD_CAT_ID":"46031","CENTER_NAME":"EARTH","SITE":"AFETR","ELEMENT_SET_NO":"999","LAUNCH_DATE":"2020-08-07","TIME_SYSTEM":"UTC","DECAY_DATE":null,"PERIAPSIS":"546.137","APOAPSIS":"548.012","REF_FRAME":"TEME","TLE_LINE1":"1 46031U 20055E   23052.55107613  .00024154  00000-0  16329-2 0  9995","MEAN_MOTION_DOT":"0.00024154","GP_ID":"226272342","TLE_LINE2":"2 46031  53.0525  79.1992 0001354  84.2350 275.8793 15.06445476141254","ARG_OF_PERICENTER":"84.2350","MEAN_MOTION":"15.06445476","PERIOD":"95.589","RCS_SIZE":"LARGE","CLASSIFICATION_TYPE":"U","MEAN_ANOMALY":"275.8793","FILE":"3819803","SEMIMAJOR_AXIS":"6925.209","BSTAR":"0.00163290000000","OBJECT_NAME":"STARLINK-1544","OBJECT_ID":"2020-055E","ECCENTRICITY":"0.00013540"},{"NORAD_CAT_ID":"46032","OBJECT_TYPE":"PAYLOAD","MEAN_MOTION_DDOT":"0.0000000000000","REV_AT_EPOCH":"14130","ELEMENT_SET_NO":"999","LAUNCH_DATE":"2020-08-07","SITE":"AFETR","CENTER_NAME":"EARTH","COUNTRY_CODE":"US","EPHEMERIS_TYPE":"0","MEAN_ELEMENT_THEORY":"SGP4","EPOCH":"2023-02-21T18:44:01.196160","RA_OF_ASC_NODE":"78.1785","INCLINATION":"53.0534","SEMIMAJOR_AXIS":"6925.408","BSTAR":"-0.00003845600000","OBJECT_NAME":"STARLINK-1555","MEAN_ANOMALY":"267.7271","FILE":"3821329","CLASSIFICATION_TYPE":"U","ECCENTRICITY":"0.00010290","OBJECT_ID":"2020-055F","MEAN_MOTION_DOT":"-0.00000854","GP_ID":"226329019","TLE_LINE1":"1 46032U 20055F   23052.78056940 -.00000854  00000-0 -38456-4 0  9997","DECAY_DATE":null,"PERIAPSIS":"546.561","REF_FRAME":"TEME","APOAPSIS":"547.986","TIME_SYSTEM":"UTC","RCS_SIZE":"LARGE","PERIOD":"95.593","ARG_OF_PERICENTER":"92.3836","MEAN_MOTION":"15.06380527","TLE_LINE2":"2 46032  53.0534  78.1785 0001029  92.3836 267.7271 15.06380527141304"},{"MEAN_ANOMALY":"284.9031","FILE":"3821329","BSTAR":"-0.00003056000000","OBJECT_NAME":"STARLINK-1556","SEMIMAJOR_AXIS":"6925.332","CLASSIFICATION_TYPE":"U","OBJECT_ID":"2020-055G","ECCENTRICITY":"0.00022670","TLE_LINE1":"1 46033U 20055G   23052.76212413 -.00000737  00000-0 -30560-4 0  9993","GP_ID":"226327769","MEAN_MOTION_DOT":"-0.00000737","TIME_SYSTEM":"UTC","PERIAPSIS":"545.627","APOAPSIS":"548.767","REF_FRAME":"TEME","DECAY_DATE":null,"PERIOD":"95.592","RCS_SIZE":"LARGE","TLE_LINE2":"2 46033  53.0532  78.2535 0002267  75.2209 284.9031 15.06405320141276","MEAN_MOTION":"15.06405320","ARG_OF_PERICENTER":"75.2209","OBJECT_TYPE":"PAYLOAD","NORAD_CAT_ID":"46033","REV_AT_EPOCH":"14127","MEAN_MOTION_DDOT":"0.0000000000000","LAUNCH_DATE":"2020-08-07","ELEMENT_SET_NO":"999","CENTER_NAME":"EARTH","SITE":"AFETR","COUNTRY_CODE":"US","MEAN_ELEMENT_THEORY":"SGP4","EPHEMERIS_TYPE":"0","RA_OF_ASC_NODE":"78.2535","EPOCH":"2023-02-21T18:17:27.524832","INCLINATION":"53.0532"}];
